[{"OBJECT_NAME":"STARLINK-4655","OBJECT_ID":"2022-104AB","EPOCH":"2026-03-09T18:16:05.193408","MEAN_MOTION":15.08826646,"ECCENTRICITY":0.00012585,"INCLINATION":53.2181,"RA_OF_ASC_NODE":233.9544,"ARG_OF_PERICENTER":94.545,"MEAN_ANOMALY":265.5686,"EPHEMERIS_TYPE":0,"CLASSIFICATION_TYPE":"U","NORAD_CAT_ID":53613,"ELEMENT_SET_NO":999,"REV_AT_EPOCH":19564,"BSTAR":0.00015125177,"MEAN_MOTION_DOT":2.119e-5,"MEAN_MOTION_DDOT":0},{"OBJECT_NAME":"FENGYUN 1C DEB","OBJECT_ID":"1999-025BRA","EPOCH":"2026-03-07T21:38:03.570144","MEAN_MOTION":15.14550758,"ECCENTRICITY":0.01045185,"INCLINATION":98.8762,"RA_OF_ASC_NODE":52.6466,"ARG_OF_PERICENTER":91.2586,"MEAN_ANOMALY":270.0618,"EPHEMERIS_TYPE":0,"CLASSIFICATION_TYPE":"U","NORAD_CAT_ID":31346,"ELEMENT_SET_NO":999,"REV_AT_EPOCH":773,"BSTAR":0.0014203897,"MEAN_MOTION_DOT":0.00030047,"MEAN_MOTION_DDOT":0}]
